TRANSPORTER-12 OBJECT AZ
1 62656U 25009AZ  26068.71026235  .00016057  00000+0  54903-3 0  9991
2 62656  97.3981 151.9913 0000987  45.3581 314.7740 15.30349724 63792
STARLINK-34847          
1 65211U 25176P   26068.45074469  .00031140  00000+0  10585-2 0  9996
2 65211  53.1575 153.8531 0002124 153.8545 206.2563 15.30216655 33081
