[{"OBJECT_NAME":"TRANSPORTER-12 OBJECT AZ","OBJECT_ID":"2025-009AZ","EPOCH":"2026-03-09T17:02:46.667040","MEAN_MOTION":15.30349724,"ECCENTRICITY":9.87e-5,"INCLINATION":97.3981,"RA_OF_ASC_NODE":151.9913,"ARG_OF_PERICENTER":45.3581,"MEAN_ANOMALY":314.774,"EPHEMERIS_TYPE":0,"CLASSIFICATION_TYPE":"U","NORAD_CAT_ID":62656,"ELEMENT_SET_NO":999,"REV_AT_EPOCH":6379,"BSTAR":0.00054902545,"MEAN_MOTION_DOT":0.00016057,"MEAN_MOTION_DDOT":0},{"OBJECT_NAME":"STARLINK-34847","OBJECT_ID":"2025-176P","EPOCH":"2026-03-09T10:49:04.341216","MEAN_MOTION":15.30216655,"ECCENTRICITY":0.00021248,"INCLINATION":53.1575,"RA_OF_ASC_NODE":153.8531,"ARG_OF_PERICENTER":153.8545,"MEAN_ANOMALY":206.2563,"EPHEMERIS_TYPE":0,"CLASSIFICATION_TYPE":"U","NORAD_CAT_ID":65211,"ELEMENT_SET_NO":999,"REV_AT_EPOCH":3308,"BSTAR":0.0010585297,"MEAN_MOTION_DOT":0.0003114,"MEAN_MOTION_DDOT":0}]
